GLOBALSTAR M068         
1 32266U 07048D   25215.17539918 -.00000095  00000+0  51123-4 0  9996
2 32266  51.9873 159.0201 0000619 252.8897 213.5948 12.62826443823787
GLOBALSTAR M079         
1 37188U 10054A   25214.83820687 -.00000094  00000+0  53059-4 0  9992
2 37188  52.0062 357.7731 0000956  83.7312  77.3106 12.62265606683020
GLOBALSTAR M074         
1 37189U 10054B   25214.85875392 -.00000101  00000+0  14692-4 0  9997
2 37189  52.0040 357.0278 0000936 104.0420  28.8288 12.62266761683026
GLOBALSTAR M076         
1 37190U 10054C   25214.72656149 -.00000090  00000+0  78900-4 0  9991
2 37190  52.0052 357.6040 0001065  93.9150  38.6808 12.62264233683012
GLOBALSTAR M077         
1 37191U 10054D   25214.55553712 -.00000131  00000+0 -15159-3 0  9998
2 37191  52.0094 314.9943 0000672 115.5313  21.2316 12.62322284683004
GLOBALSTAR M075         
1 37192U 10054E   25214.56047994 -.00000097  00000+0  35274-4 0  9991
2 37192  51.9957  40.3403 0000818  81.5431 316.2946 12.62266424681701
GLOBALSTAR M073         
1 37193U 10054F   25214.56758323 -.00000097  00000+0  39409-4 0  9991
2 37193  52.0082 314.1746 0000745 102.8048 327.8904 12.62261468683690
GLOBALSTAR M083         
1 37739U 11033A   25214.51877476 -.00000090  00000+0  74995-4 0  9993
2 37739  51.9846 262.9943 0000293 104.6493  41.9671 12.62275088653069
GLOBALSTAR M088         
1 37740U 11033B   25214.86159472 -.00000087  00000+0  92749-4 0  9995
2 37740  52.0201 167.6009 0000241  21.5675   4.8540 12.62267098648580
GLOBALSTAR M091         
1 37741U 11033C   25214.27268208 -.00000096  00000+0  42457-4 0  9990
2 37741  51.9993 132.8286 0000593  20.5167 149.3700 12.62269569649009
GLOBALSTAR M085         
1 37742U 11033D   25214.70646370 -.00000109  00000+0 -30723-4 0  9998
2 37742  52.0127  82.5219 0000776  46.0650 356.3757 12.62263940650068
GLOBALSTAR M081         
1 37743U 11033E   25214.65138887 -.00000104  00000+0 -99295-6 0  9998
2 37743  51.9959  85.4906 0000912  56.5172 333.9688 12.62267294649712
GLOBALSTAR M089         
1 37744U 11033F   25214.52956809 -.00000098  00000+0  34183-4 0  9991
2 37744  51.9940  40.0785 0001006  95.3019 282.4335 12.62265617650548
GLOBALSTAR M084         
1 38040U 11080A   25214.57373010 -.00000089  00000+0  79782-4 0  9999
2 38040  51.9999 267.2601 0000726 129.2371  28.5667 12.62267680628520
GLOBALSTAR M080         
1 38041U 11080B   25214.54319031 -.00000090  00000+0  79193-4 0  9998
2 38041  52.0051 268.9616 0000274 208.7748 299.4420 12.62267876628641
GLOBALSTAR M082         
1 38042U 11080C   25214.40025212 -.00000088  00000+0  89244-4 0  9994
2 38042  52.0048 224.8599 0000260 289.6445 219.6744 12.62267705629337
GLOBALSTAR M092         
1 38043U 11080D   25215.21475872 -.00000092  00000+0  66878-4 0  9999
2 38043  52.0102 312.7615 0000634 117.6261 254.2956 12.62265387628104
GLOBALSTAR M090         
1 38044U 11080E   25214.51091003 -.00000088  00000+0  90137-4 0  9992
2 38044  52.0096 218.3737 0000184  36.6200 136.5404 12.62261441629508
GLOBALSTAR M086         
1 38045U 11080F   25215.22958788 -.00000073  00000+0  17012-3 0  9998
2 38045  51.9869 216.6329 0001275  71.3507  11.0640 12.62275753629602
GLOBALSTAR M097         
1 39072U 13005A   25214.84235786 -.00000113  00000+0 -51371-4 0  9994
2 39072  52.0043 132.4073 0000666  44.1270 315.9649 12.62265618576782
GLOBALSTAR M093         
1 39073U 13005B   25214.81597936 -.00000103  00000+0  37544-5 0  9995
2 39073  51.9807 125.7162 0000718  41.1683 318.9237 12.62266374576771
GLOBALSTAR M094         
1 39074U 13005C   25214.57863478 -.00000105  00000+0 -66742-5 0  9991
2 39074  51.9968  40.8684 0000973  65.4149 294.6819 12.62263102578230
GLOBALSTAR M096         
1 39075U 13005D   25215.06683052 -.00000104  00000+0 -14687-6 0  9996
2 39075  52.0072  87.9335 0000868  46.8640 313.2299 12.62266053577569
GLOBALSTAR M078         
1 39076U 13005E   25215.19893754 -.00000096  00000+0  40639-4 0  9996
2 39076  51.9856 171.9772 0000690 305.2434  54.8368 12.62259698576069
GLOBALSTAR M095         
1 39077U 13005F   25214.43310314 -.00000092  00000+0  67073-4 0  9996
2 39077  51.9784 171.4803 0000613 346.5230  13.5620 12.62268455575611
GLOBALSTAR M087         
1 52888U 22064A   25214.60677276 -.00000095  00000+0  46924-4 0  9993
2 52888  52.0015 312.3697 0000467 104.0658 256.0260 12.62300525151237
